[{"OBJECT_NAME":"YAOGAN-30 05C","OBJECT_ID":"2018-011D","EPOCH":"2026-03-09T22:46:23.359872","MEAN_MOTION":15.02099637,"ECCENTRICITY":0.00031952,"INCLINATION":34.998,"RA_OF_ASC_NODE":35.5831,"ARG_OF_PERICENTER":272.2506,"MEAN_ANOMALY":87.7836,"EPHEMERIS_TYPE":0,"CLASSIFICATION_TYPE":"U","NORAD_CAT_ID":43172,"ELEMENT_SET_NO":999,"REV_AT_EPOCH":44315,"BSTAR":0.00032814398,"MEAN_MOTION_DOT":4.373e-5,"MEAN_MOTION_DDOT":0},{"OBJECT_NAME":"STARLINK-35201","OBJECT_ID":"2025-211N","EPOCH":"2026-03-09T16:36:10.677600","MEAN_MOTION":15.05678627,"ECCENTRICITY":0.00012095,"INCLINATION":97.602,"RA_OF_ASC_NODE":114.091,"ARG_OF_PERICENTER":89.6272,"MEAN_ANOMALY":270.5094,"EPHEMERIS_TYPE":0,"CLASSIFICATION_TYPE":"U","NORAD_CAT_ID":65664,"ELEMENT_SET_NO":999,"REV_AT_EPOCH":2704,"BSTAR":0.00061175801,"MEAN_MOTION_DOT":8.784e-5,"MEAN_MOTION_DDOT":0}]
